[
    {
        "Altitude(m)": 556367.4280916465,
        "Argument of Periapsis(deg)": 0.0,
        "Eccentricity": 0.0,
        "Inclination(deg)": 53.0,
        "Latitude(deg)": 37.24579866519899,
        "Longitude(deg)": -175.23347125070188,
        "Mean Anomaly(deg)": 49.09089999999999,
        "RAAN(deg)": 250.00000000000003,
        "Satellite Name": "Starlink Shell 1 1103",
        "Satellite Number": 1103,
        "Semi-Major Axis(m)": 6931778.249405717,
        "Time(s)": 0
    },
    {
        "Altitude(m)": 556450.8133596437,
        "Argument of Periapsis(deg)": 0.00034857847951123687,
        "Eccentricity": 0.0,
        "Inclination(deg)": 53.0,
        "Latitude(deg)": 37.657022351919515,
        "Longitude(deg)": -174.67854408791854,
        "Mean Anomaly(deg)": 49.71773120355674,
        "RAAN(deg)": 249.99948122992254,
        "Satellite Name": "Starlink Shell 1 1103",
        "Satellite Number": 1103,
        "Semi-Major Axis(m)": 6931778.249405717,
        "Time(s)": 10
    },
    {
        "Altitude(m)": 556534.2850559386,
        "Argument of Periapsis(deg)": 0.0006971569590224737,
        "Eccentricity": 0.0,
        "Inclination(deg)": 53.0,
        "Latitude(deg)": 38.06517063129328,
        "Longitude(deg)": -174.1170355563394,
        "Mean Anomaly(deg)": 50.344562407113436,
        "RAAN(deg)": 249.99896245984507,
        "Satellite Name": "Starlink Shell 1 1103",
        "Satellite Number": 1103,
        "Semi-Major Axis(m)": 6931778.249405717,
        "Time(s)": 20
    },
    {
        "Altitude(m)": 556617.7880215361,
        "Argument of Periapsis(deg)": 0.0010457354385337105,
        "Eccentricity": 0.0,
        "Inclination(deg)": 53.0,
        "Latitude(deg)": 38.47016480804518,
        "Longitude(deg)": -173.54882538895671,
        "Mean Anomaly(deg)": 50.971393610670134,
        "RAAN(deg)": 249.9984436897676,
        "Satellite Name": "Starlink Shell 1 1103",
        "Satellite Number": 1103,
        "Semi-Major Axis(m)": 6931778.249405717,
        "Time(s)": 30
    },
    {
        "Altitude(m)": 556701.267291799,
        "Argument of Periapsis(deg)": 0.0013943139180449475,
        "Eccentricity": 0.0,
        "Inclination(deg)": 53.0,
        "Latitude(deg)": 38.87192443954047,
        "Longitude(deg)": -172.97379295761422,
        "Mean Anomaly(deg)": 51.59822481422683,
        "RAAN(deg)": 249.99792491969012,
        "Satellite Name": "Starlink Shell 1 1103",
        "Satellite Number": 1103,
        "Semi-Major Axis(m)": 6931778.249405717,
        "Time(s)": 40
    },
    {
        "Altitude(m)": 556784.668124508,
        "Argument of Periapsis(deg)": 0.0017428923975561844,
        "Eccentricity": 0.0,
        "Inclination(deg)": 53.0,
        "Latitude(deg)": 39.270367312759795,
        "Longitude(deg)": -172.39181845633698,
        "Mean Anomaly(deg)": 52.22505601778357,
        "RAAN(deg)": 249.9974061496127,
        "Satellite Name": "Starlink Shell 1 1103",
        "Satellite Number": 1103,
        "Semi-Major Axis(m)": 6931778.249405717,
        "Time(s)": 50
    },
    {
        "Altitude(m)": 556867.9360277647,
        "Argument of Periapsis(deg)": 0.002091470877067421,
        "Eccentricity": 0.0,
        "Inclination(deg)": 53.0,
        "Latitude(deg)": 39.665409423250146,
        "Longitude(deg)": -171.80278258571053,
        "Mean Anomaly(deg)": 52.85188722134032,
        "RAAN(deg)": 249.99688737953517,
        "Satellite Name": "Starlink Shell 1 1103",
        "Satellite Number": 1103,
        "Semi-Major Axis(m)": 6931778.249405717,
        "Time(s)": 60
    },
    {
        "Altitude(m)": 556951.0167877537,
        "Argument of Periapsis(deg)": 0.0024400493565786582,
        "Eccentricity": 0.0,
        "Inclination(deg)": 53.0,
        "Latitude(deg)": 40.05696495629657,
        "Longitude(deg)": -171.20656625179296,
        "Mean Anomaly(deg)": 53.47871842489697,
        "RAAN(deg)": 249.99636860945768,
        "Satellite Name": "Starlink Shell 1 1103",
        "Satellite Number": 1103,
        "Semi-Major Axis(m)": 6931778.249405717,
        "Time(s)": 70
    },
    {
        "Altitude(m)": 557033.8564962762,
        "Argument of Periapsis(deg)": 0.002788627836089895,
        "Eccentricity": 0.0,
        "Inclination(deg)": 53.0,
        "Latitude(deg)": 40.44494627057573,
        "Longitude(deg)": -170.6030517930289,
        "Mean Anomaly(deg)": 54.105549628453716,
        "RAAN(deg)": 249.99584983938027,
        "Satellite Name": "Starlink Shell 1 1103",
        "Satellite Number": 1103,
        "Semi-Major Axis(m)": 6931778.249405717,
        "Time(s)": 80
    },
    {
        "Altitude(m)": 557116.4015781495,
        "Argument of Periapsis(deg)": 0.0031372063156011316,
        "Eccentricity": 0.0,
        "Inclination(deg)": 53.0,
        "Latitude(deg)": 40.82926388456001,
        "Longitude(deg)": -169.99212270999874,
        "Mean Anomaly(deg)": 54.73238083201041,
        "RAAN(deg)": 249.99533106930278,
        "Satellite Name": "Starlink Shell 1 1103",
        "Satellite Number": 1103,
        "Semi-Major Axis(m)": 6931778.249405717,
        "Time(s)": 90
    },
    {
        "Altitude(m)": 557198.5988183457,
        "Argument of Periapsis(deg)": 0.0034857847951123688,
        "Eccentricity": 0.0,
        "Inclination(deg)": 53.0,
        "Latitude(deg)": 41.20982646596496,
        "Longitude(deg)": -169.373663411428,
        "Mean Anomaly(deg)": 55.359212035567154,
        "RAAN(deg)": 249.9948122992253,
        "Satellite Name": "Starlink Shell 1 1103",
        "Satellite Number": 1103,
        "Semi-Major Axis(m)": 6931778.249405717,
        "Time(s)": 100
    },
    {
        "Altitude(m)": 557280.3953889472,
        "Argument of Periapsis(deg)": 0.003834363274623606,
        "Eccentricity": 0.0,
        "Inclination(deg)": 53.0,
        "Latitude(deg)": 41.586540824549466,
        "Longitude(deg)": -168.74756048985367,
        "Mean Anomaly(deg)": 55.9860432391239,
        "RAAN(deg)": 249.99429352914785,
        "Satellite Name": "Starlink Shell 1 1103",
        "Satellite Number": 1103,
        "Semi-Major Axis(m)": 6931778.249405717,
        "Time(s)": 110
    },
    {
        "Altitude(m)": 557361.738875861,
        "Argument of Periapsis(deg)": 0.004182941754134842,
        "Eccentricity": 0.0,
        "Inclination(deg)": 53.0,
        "Latitude(deg)": 41.9593119085852,
        "Longitude(deg)": -168.11370250167974,
        "Mean Anomaly(deg)": 56.61287444268055,
        "RAAN(deg)": 249.99377475907036,
        "Satellite Name": "Starlink Shell 1 1103",
        "Satellite Number": 1103,
        "Semi-Major Axis(m)": 6931778.249405717,
        "Time(s)": 120
    },
    {
        "Altitude(m)": 557442.5773052908,
        "Argument of Periapsis(deg)": 0.004531520233646079,
        "Eccentricity": 0.0,
        "Inclination(deg)": 53.0,
        "Latitude(deg)": 42.328042805336345,
        "Longitude(deg)": -167.47197976492438,
        "Mean Anomaly(deg)": 57.2397056462373,
        "RAAN(deg)": 249.99325598899287,
        "Satellite Name": "Starlink Shell 1 1103",
        "Satellite Number": 1103,
        "Semi-Major Axis(m)": 6931778.249405717,
        "Time(s)": 130
    },
    {
        "Altitude(m)": 557522.8591699378,
        "Argument of Periapsis(deg)": 0.0048800987131573164,
        "Eccentricity": 0.0,
        "Inclination(deg)": 53.0,
        "Latitude(deg)": 42.692634745905444,
        "Longitude(deg)": -166.8222856879015,
        "Mean Anomaly(deg)": 57.866536849793995,
        "RAAN(deg)": 249.9927372189154,
        "Satellite Name": "Starlink Shell 1 1103",
        "Satellite Number": 1103,
        "Semi-Major Axis(m)": 6931778.249405717,
        "Time(s)": 140
    },
    {
        "Altitude(m)": 557602.5334549745,
        "Argument of Periapsis(deg)": 0.005228677192668553,
        "Eccentricity": 0.0,
        "Inclination(deg)": 53.0,
        "Latitude(deg)": 43.0529871148079,
        "Longitude(deg)": -166.16451660338575,
        "Mean Anomaly(deg)": 58.493368053350736,
        "RAAN(deg)": 249.99221844883792,
        "Satellite Name": "Starlink Shell 1 1103",
        "Satellite Number": 1103,
        "Semi-Major Axis(m)": 6931778.249405717,
        "Time(s)": 150
    },
    {
        "Altitude(m)": 557681.5496636803,
        "Argument of Periapsis(deg)": 0.00557725567217979,
        "Eccentricity": 0.0,
        "Inclination(deg)": 53.0,
        "Latitude(deg)": 43.408997464659265,
        "Longitude(deg)": -165.49857162134714,
        "Mean Anomaly(deg)": 59.12019925690743,
        "RAAN(deg)": 249.99169967876045,
        "Satellite Name": "Starlink Shell 1 1103",
        "Satellite Number": 1103,
        "Semi-Major Axis(m)": 6931778.249405717,
        "Time(s)": 160
    },
    {
        "Altitude(m)": 557759.8578428421,
        "Argument of Periapsis(deg)": 0.0059258341516910265,
        "Eccentricity": 0.0,
        "Inclination(deg)": 53.0,
        "Latitude(deg)": 43.76056153637262,
        "Longitude(deg)": -164.82435401324148,
        "Mean Anomaly(deg)": 59.74703046046413,
        "RAAN(deg)": 249.99118090868302,
        "Satellite Name": "Starlink Shell 1 1103",
        "Satellite Number": 1103,
        "Semi-Major Axis(m)": 6931778.249405717,
        "Time(s)": 170
    },
    {
        "Altitude(m)": 557837.4086078154,
        "Argument of Periapsis(deg)": 0.006274412631202263,
        "Eccentricity": 0.0,
        "Inclination(deg)": 53.0,
        "Latitude(deg)": 44.107573285264635,
        "Longitude(deg)": -164.14177110211762,
        "Mean Anomaly(deg)": 60.37386166402088,
        "RAAN(deg)": 249.9906621386055,
        "Satellite Name": "Starlink Shell 1 1103",
        "Satellite Number": 1103,
        "Semi-Major Axis(m)": 6931778.249405717,
        "Time(s)": 180
    }
]